ONEWEB-0333             
1 49199U 21083P   25315.19606829  .00000241  00000+0  62522-3 0  9999
2 49199  87.9003   3.5864 0001861 100.0399 260.0940 13.13469112202292
ONEWEB-0334             
1 49200U 21083Q   25315.26602350  .00000116  00000+0  25440-3 0  9994
2 49200  87.9177 317.9243 0002741 103.0946 257.0494 13.20772522208026
ONEWEB-0335             
1 49201U 21083R   25315.19098855  .00000131  00000+0  32412-3 0  9990
2 49201  87.9005   3.5754 0001624  96.6738 263.4576 13.13469357202305
ONEWEB-0336             
1 49202U 21083S   25315.16219710 -.00000227  00000+0 -65784-3 0  9999
2 49202  87.9006   3.5760 0001455  91.2398 268.8898 13.13468174202299
ONEWEB-0337             
1 49203U 21083T   25315.17221305 -.00000228  00000+0 -66008-3 0  9995
2 49203  87.9017   3.5846 0001791  91.8139 268.3195 13.13468635202296
ONEWEB-0338             
1 49204U 21083U   25315.24075704 -.00000048  00000+0 -15021-3 0  9993
2 49204  87.9179 317.9314 0002103  94.4666 265.6708 13.20769990208045
ONEWEB-0339             
1 49205U 21083V   25315.18083089 -.00000089  00000+0 -27743-3 0  9991
2 49205  87.9016   3.5654 0002052  96.7864 263.3499 13.13471230202279
ONEWEB-0340             
1 49206U 21083W   25315.21681193  .00000087  00000+0  18718-3 0  9994
2 49206  87.9218  18.7431 0001744  99.8385 260.2944 13.18688616201244
ONEWEB-0341             
1 49207U 21083X   25315.22340954  .00000015  00000+0  65260-5 0  9990
2 49207  87.9219  18.7544 0001949  84.8720 275.2635 13.18687869201269
ONEWEB-0342             
1 49208U 21083Y   25315.24706758  .00000167  00000+0  37878-3 0  9991
2 49208  87.9186 317.8991 0001963  91.4463 268.6895 13.20774542208018
ONEWEB-0343             
1 49209U 21083Z   25315.23167222  .00000004  00000+0 -23693-4 0  9990
2 49209  87.9220  18.7441 0002278  89.6727 270.4667 13.18685644201312
ONEWEB-0344             
1 49210U 21083AA  25315.17574760 -.00000190  00000+0 -55591-3 0  9992
2 49210  87.9004   3.6001 0001813  84.1957 275.9378 13.13471131202272
ONEWEB-0345             
1 49211U 21083AB  25315.16728885 -.00000249  00000+0 -71729-3 0  9997
2 49211  87.9014   3.5594 0001921  86.3373 273.7976 13.13469385202285
ONEWEB-0346             
1 49212U 21083AC  25315.22835051  .00000008  00000+0 -11808-4 0  9994
2 49212  87.9220  18.7616 0001280 108.8098 251.3173 13.18688367201255
ONEWEB-0348             
1 49213U 21083AD  25315.31335465  .00000080  00000+0  16370-3 0  9996
2 49213  87.9172 317.8948 0001472  74.3639 285.7656 13.20773208208058
ONEWEB-0350             
1 49214U 21083AE  25315.17658695 -.00000441  00000+0 -12420-2 0  9998
2 49214  87.9013   3.5542 0001767  88.1463 271.9869 13.13469975202318
ONEWEB-0351             
1 49215U 21083AF  25315.30691840  .00000072  00000+0  14420-3 0  9994
2 49215  87.9186 317.8895 0002748  89.0779 271.0669 13.20770465208011
