[{"OBJECT_NAME":"ONEWEB-0333","OBJECT_ID":"2021-083P","EPOCH":"2025-11-11T04:42:20.300256","MEAN_MOTION":13.13469112,"ECCENTRICITY":0.00018613,"INCLINATION":87.9003,"RA_OF_ASC_NODE":3.5864,"ARG_OF_PERICENTER":100.0399,"MEAN_ANOMALY":260.094,"EPHEMERIS_TYPE":0,"CLASSIFICATION_TYPE":"U","NORAD_CAT_ID":49199,"ELEMENT_SET_NO":999,"REV_AT_EPOCH":20229,"BSTAR":0.00062522074,"MEAN_MOTION_DOT":2.41e-6,"MEAN_MOTION_DDOT":0},{"OBJECT_NAME":"ONEWEB-0334","OBJECT_ID":"2021-083Q","EPOCH":"2025-11-11T06:23:04.430400","MEAN_MOTION":13.20772522,"ECCENTRICITY":0.00027413,"INCLINATION":87.9177,"RA_OF_ASC_NODE":317.9243,"ARG_OF_PERICENTER":103.0946,"MEAN_ANOMALY":257.0494,"EPHEMERIS_TYPE":0,"CLASSIFICATION_TYPE":"U","NORAD_CAT_ID":49200,"ELEMENT_SET_NO":999,"REV_AT_EPOCH":20802,"BSTAR":0.00025440446,"MEAN_MOTION_DOT":1.16e-6,"MEAN_MOTION_DDOT":0},{"OBJECT_NAME":"ONEWEB-0335","OBJECT_ID":"2021-083R","EPOCH":"2025-11-11T04:35:01.410720","MEAN_MOTION":13.13469357,"ECCENTRICITY":0.00016248,"INCLINATION":87.9005,"RA_OF_ASC_NODE":3.5754,"ARG_OF_PERICENTER":96.6738,"MEAN_ANOMALY":263.4576,"EPHEMERIS_TYPE":0,"CLASSIFICATION_TYPE":"U","NORAD_CAT_ID":49201,"ELEMENT_SET_NO":999,"REV_AT_EPOCH":20230,"BSTAR":0.00032411642,"MEAN_MOTION_DOT":1.31e-6,"MEAN_MOTION_DDOT":0},{"OBJECT_NAME":"ONEWEB-0336","OBJECT_ID":"2021-083S","EPOCH":"2025-11-11T03:53:33.829440","MEAN_MOTION":13.13468174,"ECCENTRICITY":0.0001455,"INCLINATION":87.9006,"RA_OF_ASC_NODE":3.576,"ARG_OF_PERICENTER":91.2398,"MEAN_ANOMALY":268.8898,"EPHEMERIS_TYPE":0,"CLASSIFICATION_TYPE":"U","NORAD_CAT_ID":49202,"ELEMENT_SET_NO":999,"REV_AT_EPOCH":20229,"BSTAR":-0.00065784065,"MEAN_MOTION_DOT":-2.27e-6,"MEAN_MOTION_DDOT":0},{"OBJECT_NAME":"ONEWEB-0337","OBJECT_ID":"2021-083T","EPOCH":"2025-11-11T04:07:59.207520","MEAN_MOTION":13.13468635,"ECCENTRICITY":0.00017916,"INCLINATION":87.9017,"RA_OF_ASC_NODE":3.5846,"ARG_OF_PERICENTER":91.8139,"MEAN_ANOMALY":268.3195,"EPHEMERIS_TYPE":0,"CLASSIFICATION_TYPE":"U","NORAD_CAT_ID":49203,"ELEMENT_SET_NO":999,"REV_AT_EPOCH":20229,"BSTAR":-0.00066008375,"MEAN_MOTION_DOT":-2.28e-6,"MEAN_MOTION_DDOT":0},{"OBJECT_NAME":"ONEWEB-0338","OBJECT_ID":"2021-083U","EPOCH":"2025-11-11T05:46:41.408256","MEAN_MOTION":13.2076999,"ECCENTRICITY":0.00021034,"INCLINATION":87.9179,"RA_OF_ASC_NODE":317.9314,"ARG_OF_PERICENTER":94.4666,"MEAN_ANOMALY":265.6708,"EPHEMERIS_TYPE":0,"CLASSIFICATION_TYPE":"U","NORAD_CAT_ID":49204,"ELEMENT_SET_NO":999,"REV_AT_EPOCH":20804,"BSTAR":-0.00015021116,"MEAN_MOTION_DOT":-4.8e-7,"MEAN_MOTION_DDOT":0},{"OBJECT_NAME":"ONEWEB-0339","OBJECT_ID":"2021-083V","EPOCH":"2025-11-11T04:20:23.788896","MEAN_MOTION":13.1347123,"ECCENTRICITY":0.00020527,"INCLINATION":87.9016,"RA_OF_ASC_NODE":3.5654,"ARG_OF_PERICENTER":96.7864,"MEAN_ANOMALY":263.3499,"EPHEMERIS_TYPE":0,"CLASSIFICATION_TYPE":"U","NORAD_CAT_ID":49205,"ELEMENT_SET_NO":999,"REV_AT_EPOCH":20227,"BSTAR":-0.00027742518,"MEAN_MOTION_DOT":-8.9e-7,"MEAN_MOTION_DDOT":0},{"OBJECT_NAME":"ONEWEB-0340","OBJECT_ID":"2021-083W","EPOCH":"2025-11-11T05:12:12.550752","MEAN_MOTION":13.18688616,"ECCENTRICITY":0.00017442,"INCLINATION":87.9218,"RA_OF_ASC_NODE":18.7431,"ARG_OF_PERICENTER":99.8385,"MEAN_ANOMALY":260.2944,"EPHEMERIS_TYPE":0,"CLASSIFICATION_TYPE":"U","NORAD_CAT_ID":49206,"ELEMENT_SET_NO":999,"REV_AT_EPOCH":20124,"BSTAR":0.0001871847,"MEAN_MOTION_DOT":8.7e-7,"MEAN_MOTION_DDOT":0},{"OBJECT_NAME":"ONEWEB-0341","OBJECT_ID":"2021-083X","EPOCH":"2025-11-11T05:21:42.584256","MEAN_MOTION":13.18687869,"ECCENTRICITY":0.00019499,"INCLINATION":87.9219,"RA_OF_ASC_NODE":18.7544,"ARG_OF_PERICENTER":84.872,"MEAN_ANOMALY":275.2635,"EPHEMERIS_TYPE":0,"CLASSIFICATION_TYPE":"U","NORAD_CAT_ID":49207,"ELEMENT_SET_NO":999,"REV_AT_EPOCH":20126,"BSTAR":6.526024e-6,"MEAN_MOTION_DOT":1.5e-7,"MEAN_MOTION_DDOT":0},{"OBJECT_NAME":"ONEWEB-0342","OBJECT_ID":"2021-083Y","EPOCH":"2025-11-11T05:55:46.638912","MEAN_MOTION":13.20774542,"ECCENTRICITY":0.00019639,"INCLINATION":87.9186,"RA_OF_ASC_NODE":317.8991,"ARG_OF_PERICENTER":91.4463,"MEAN_ANOMALY":268.6895,"EPHEMERIS_TYPE":0,"CLASSIFICATION_TYPE":"U","NORAD_CAT_ID":49208,"ELEMENT_SET_NO":999,"REV_AT_EPOCH":20801,"BSTAR":0.00037877644,"MEAN_MOTION_DOT":1.67e-6,"MEAN_MOTION_DDOT":0},{"OBJECT_NAME":"ONEWEB-0343","OBJECT_ID":"2021-083Z","EPOCH":"2025-11-11T05:33:36.479808","MEAN_MOTION":13.18685644,"ECCENTRICITY":0.0002278,"INCLINATION":87.922,"RA_OF_ASC_NODE":18.7441,"ARG_OF_PERICENTER":89.6727,"MEAN_ANOMALY":270.4667,"EPHEMERIS_TYPE":0,"CLASSIFICATION_TYPE":"U","NORAD_CAT_ID":49209,"ELEMENT_SET_NO":999,"REV_AT_EPOCH":20131,"BSTAR":-2.369262e-5,"MEAN_MOTION_DOT":4.0e-8,"MEAN_MOTION_DDOT":0},{"OBJECT_NAME":"ONEWEB-0344","OBJECT_ID":"2021-083AA","EPOCH":"2025-11-11T04:13:04.592640","MEAN_MOTION":13.13471131,"ECCENTRICITY":0.00018137,"INCLINATION":87.9004,"RA_OF_ASC_NODE":3.6001,"ARG_OF_PERICENTER":84.1957,"MEAN_ANOMALY":275.9378,"EPHEMERIS_TYPE":0,"CLASSIFICATION_TYPE":"U","NORAD_CAT_ID":49210,"ELEMENT_SET_NO":999,"REV_AT_EPOCH":20227,"BSTAR":-0.0005559142,"MEAN_MOTION_DOT":-1.9e-6,"MEAN_MOTION_DDOT":0},{"OBJECT_NAME":"ONEWEB-0345","OBJECT_ID":"2021-083AB","EPOCH":"2025-11-11T04:00:53.756640","MEAN_MOTION":13.13469385,"ECCENTRICITY":0.00019212,"INCLINATION":87.9014,"RA_OF_ASC_NODE":3.5594,"ARG_OF_PERICENTER":86.3373,"MEAN_ANOMALY":273.7976,"EPHEMERIS_TYPE":0,"CLASSIFICATION_TYPE":"U","NORAD_CAT_ID":49211,"ELEMENT_SET_NO":999,"REV_AT_EPOCH":20228,"BSTAR":-0.00071729251,"MEAN_MOTION_DOT":-2.49e-6,"MEAN_MOTION_DDOT":0},{"OBJECT_NAME":"ONEWEB-0346","OBJECT_ID":"2021-083AC","EPOCH":"2025-11-11T05:28:49.484064","MEAN_MOTION":13.18688367,"ECCENTRICITY":0.00012806,"INCLINATION":87.922,"RA_OF_ASC_NODE":18.7616,"ARG_OF_PERICENTER":108.8098,"MEAN_ANOMALY":251.3173,"EPHEMERIS_TYPE":0,"CLASSIFICATION_TYPE":"U","NORAD_CAT_ID":49212,"ELEMENT_SET_NO":999,"REV_AT_EPOCH":20125,"BSTAR":-1.180756e-5,"MEAN_MOTION_DOT":8.0e-8,"MEAN_MOTION_DDOT":0},{"OBJECT_NAME":"ONEWEB-0348","OBJECT_ID":"2021-083AD","EPOCH":"2025-11-11T07:31:13.841760","MEAN_MOTION":13.20773208,"ECCENTRICITY":0.0001472,"INCLINATION":87.9172,"RA_OF_ASC_NODE":317.8948,"ARG_OF_PERICENTER":74.3639,"MEAN_ANOMALY":285.7656,"EPHEMERIS_TYPE":0,"CLASSIFICATION_TYPE":"U","NORAD_CAT_ID":49213,"ELEMENT_SET_NO":999,"REV_AT_EPOCH":20805,"BSTAR":0.00016370083,"MEAN_MOTION_DOT":8.0e-7,"MEAN_MOTION_DDOT":0},{"OBJECT_NAME":"ONEWEB-0350","OBJECT_ID":"2021-083AE","EPOCH":"2025-11-11T04:14:17.112480","MEAN_MOTION":13.13469975,"ECCENTRICITY":0.00017679,"INCLINATION":87.9013,"RA_OF_ASC_NODE":3.5542,"ARG_OF_PERICENTER":88.1463,"MEAN_ANOMALY":271.9869,"EPHEMERIS_TYPE":0,"CLASSIFICATION_TYPE":"U","NORAD_CAT_ID":49214,"ELEMENT_SET_NO":999,"REV_AT_EPOCH":20231,"BSTAR":-0.0012419792,"MEAN_MOTION_DOT":-4.41e-6,"MEAN_MOTION_DDOT":0},{"OBJECT_NAME":"ONEWEB-0351","OBJECT_ID":"2021-083AF","EPOCH":"2025-11-11T07:21:57.749760","MEAN_MOTION":13.20770465,"ECCENTRICITY":0.00027487,"INCLINATION":87.9186,"RA_OF_ASC_NODE":317.8895,"ARG_OF_PERICENTER":89.0779,"MEAN_ANOMALY":271.0669,"EPHEMERIS_TYPE":0,"CLASSIFICATION_TYPE":"U","NORAD_CAT_ID":49215,"ELEMENT_SET_NO":999,"REV_AT_EPOCH":20801,"BSTAR":0.00014420276,"MEAN_MOTION_DOT":7.2e-7,"MEAN_MOTION_DDOT":0}]
